SARSAT 7 (NOAA 15)      
1 25338U 98030A   22361.56342989  .00000137  00000+0  75372-4 0  9999
2 25338  98.6256  28.3957 0011433  94.5903 265.6583 14.26213111280541
GPS BIIR-08             
1 27663U 03005A   22361.41119310 -.00000015  00000+0  00000+0 0  9991
2 27663  55.3872 265.3952 0130605  42.1340  94.8907  2.00553150145881
GPS BIIR-11             
1 28190U 04009A   22361.50256464 -.00000066  00000+0  00000+0 0  9990
2 28190  55.8797 326.4148 0088211 128.2449 229.7269  2.00572880137517
GPS BIIR-13             
1 28474U 04045A   22361.44817941 -.00000081  00000+0  00000+0 0  9998
2 28474  55.4056  15.7148 0202948 282.6675 248.5416  2.00561631133000
SARSAT 10 (NOAA 18)     
1 28654U 05018A   22361.47865184  .00000229  00000+0  14719-3 0  9993
2 28654  98.9302  71.5756 0014955 143.3988 216.8208 14.12828514907323
GPS BIIR-14M            
1 28874U 05038A   22360.96742348 -.00000062  00000+0  00000+0 0  9998
2 28874  55.9389 323.8775 0140533 277.3547  83.9119  2.00562553126408
METEOSAT-9 (MSG-2)      
1 28912U 05049B   22361.59758316  .00000126  00000+0  00000+0 0  9995
2 28912   6.4573  65.0173 0000728 207.8493  83.9974  1.00274719 62325
GOES 13                 
1 29155U 06018A   22361.50430794  .00000037  00000+0  00000+0 0  9991
2 29155   1.0725  93.2135 0006215 154.8869  91.0240  1.00276229 30667
GPS BIIR-16M            
1 29601U 06052A   22361.03371264 -.00000009  00000+0  00000+0 0  9999
2 29601  55.4003 264.3564 0085518  75.3747 285.6347  2.00561626117975
GPS BIIR-17M            
1 32260U 07047A   22361.33564002  .00000041  00000+0  00000+0 0  9991
2 32260  53.3734 132.5476 0145469  66.7269 294.7641  2.00564896111380
GPS BIIR-18M            
1 32384U 07062A   22361.33513619 -.00000064  00000+0  00000+0 0  9999
2 32384  56.0634 324.6498 0019626 145.5023 341.9827  2.00572064110086
SARSAT 12 (NOAA 19)     
1 33591U 09005A   22361.57292398  .00000172  00000+0  11781-3 0  9994
2 33591  99.1256  39.5553 0013951   9.5655 350.5780 14.12657347715713
GOES 14                 
1 35491U 09033A   22361.41082032 -.00000090  00000+0  00000+0 0  9999
2 35491   0.1276 252.2229 0017589 333.7387 273.5313  1.00269444 49397
GOES 15                 
1 36411U 10008A   22361.51230012  .00000055  00000+0  00000+0 0  9990
2 36411   0.0825 287.1148 0003579 263.9191 321.7722  1.00261362 46946
GPS BIIF-2              
1 37753U 11036A   22361.48673799 -.00000079  00000+0  00000+0 0  9998
2 37753  56.6799  21.1979 0119424  53.0106 332.1017  2.00566356 83858
GSAT0101 (GALILEO-PFM)  
1 37846U 11060A   22361.23873407 -.00000078  00000+0  00000+0 0  9998
2 37846  57.0562  16.1009 0002563 324.6254  35.3965  1.70475848 69509
GSAT0102 (GALILEO-FM2)  
1 37847U 11060B   22360.57505611 -.00000076  00000+0  00000+0 0  9992
2 37847  57.0561  16.1186 0004375 307.7849  51.7726  1.70475151 69492
LUCH 5A                 
1 37951U 11074B   22360.03187255 -.00000045  00000+0  00000+0 0  9990
2 37951   5.4992  94.1058 0002629 154.8527  23.9120  1.00273602 40466
METEOSAT-10 (MSG-3)     
1 38552U 12035B   22361.27872451  .00000063  00000+0  00000+0 0  9991
2 38552   1.8432  50.4750 0001043 180.1260 334.9457  1.00271995 38145
SARSAT 13 (METOP-B)     
1 38771U 12049A   22361.50182698  .00000122  00000+0  75625-4 0  9998
2 38771  98.7052  58.5345 0001206 128.6089 348.8326 14.21489091533152
GPS BIIF-3              
1 38833U 12053A   22360.93740196  .00000068  00000+0  00000+0 0  9990
2 38833  53.5186 195.4716 0134357  49.4461 311.7548  2.00563935 74002
GSAT0103 (GALILEO-FM3)  
1 38857U 12055A   22358.93111190  .00000038  00000+0  00000+0 0  9998
2 38857  55.1974 136.4609 0002629 234.0373 125.8859  1.70473446 63355
GSAT0104 (GALILEO-FM4)  
1 38858U 12055B   22360.66068656  .00000038  00000+0  00000+0 0  9990
2 38858  55.1995 136.4149 0001568 167.2205 192.7361  1.70473691 63386
GPS BIIF-4              
1 39166U 13023A   22360.29722237 -.00000058  00000+0  00000+0 0  9993
2 39166  55.5602 320.2017 0108739  38.3112 322.4512  2.00564998 70437
INSAT-3D                
1 39216U 13038B   22361.36484372 -.00000153  00000+0  00000+0 0  9995
2 39216   0.0577 265.1834 0001636 353.7254  50.3052  1.00269833 34381
GPS BIIF-5              
1 39533U 14008A   22360.79884774  .00000065  00000+0  00000+0 0  9992
2 39533  53.6090 201.0048 0060934 209.0411 150.6668  2.00564243 64246
LUCH 5V                 
1 39727U 14023A   22361.51084532 -.00000268  00000+0  00000+0 0  9995
2 39727   1.9649  77.1593 0002524 218.7732  78.5867  1.00275533 31645
GPS BIIF-6              
1 39741U 14026A   22361.07643581 -.00000077  00000+0  00000+0 0  9998
2 39741  56.6378  20.7388 0029856 305.8323  53.9352  2.00574857 63108
GPS BIIF-7              
1 40105U 14045A   22361.16673749  .00000051  00000+0  00000+0 0  9995
2 40105  54.7398 139.1081 0024129 113.7071 246.5138  2.00560075 60649
GSAT0201 (GALILEO 5)    
1 40128U 14050A   22361.17068776 -.00000088  00000+0  00000+0 0  9996
2 40128  50.1470 324.6003 1614144 131.0203 244.1297  1.85519236 54797
GSAT0202 (GALILEO 6)    
1 40129U 14050B   22359.27502943 -.00000080  00000+0  00000+0 0  9996
2 40129  50.1706 323.7417 1611559 131.7612 243.2150  1.85519803 56922
GPS BIIF-8              
1 40294U 14068A   22361.03656450 -.00000036  00000+0  00000+0 0  9999
2 40294  55.9672  80.3391 0042178  57.9311 302.5130  2.00554606 59755
GLONASS-K 2             
1 40315U 14075A   22360.97613565  .00000040  00000+0  00000+0 0  9997
2 40315  63.6620 234.4360 0017355 206.9790 216.8917  2.13101393 62830
GPS BIIF-9              
1 40534U 15013A   22361.17439131 -.00000003  00000+0  00000+0 0  9991
2 40534  53.5890 256.7082 0075914  22.5515 337.8521  2.00570038 56391
GSAT0203 (GALILEO 7)    
1 40544U 15017A   22359.84496023 -.00000073  00000+0  00000+0 0  9997
2 40544  56.8519  16.1460 0005120 261.3175  98.6682  1.70475855 48221
GSAT0204 (GALILEO 8)    
1 40545U 15017B   22359.51157863 -.00000072  00000+0  00000+0 0  9997
2 40545  56.8569  16.1682 0004763 250.4732 109.5205  1.70475479 48228
GPS BIIF-10             
1 40730U 15033A   22360.83431770 -.00000060  00000+0  00000+0 0  9997
2 40730  55.0536 318.9165 0080107   8.8286 351.3077  2.00567900 54555
METEOSAT-11 (MSG-4)     
1 40732U 15034A   22361.34845666 -.00000001  00000+0  00000+0 0  9995
2 40732   0.4685 357.6608 0000517  83.4266 140.2424  1.00274483 27306
GSAT0205 (GALILEO 9)    
1 40889U 15045A   22361.03934951  .00000005  00000+0  00000+0 0  9995
2 40889  55.5033 256.6442 0005993  17.5980 342.5010  1.70472836 45391
GSAT0206 (GALILEO 10)   
1 40890U 15045B   22360.08691068  .00000013  00000+0  00000+0 0  9999
2 40890  55.5025 256.6663 0004195  10.6510 349.4400  1.70472962 45406
GPS BIIF-11             
1 41019U 15062A   22361.38582702 -.00000038  00000+0  00000+0 0  9998
2 41019  55.9541  80.1715 0084888 219.5352 139.8778  2.00562304 52407
ELEKTRO-L 2             
1 41105U 15074A   22360.41324140 -.00000113  00000+0  00000+0 0  9994
2 41105   3.4693  85.8744 0002547 157.4979 345.8389  1.00271663 25793
GSAT0209 (GALILEO 12)   
1 41174U 15079A   22360.25974212  .00000037  00000+0  00000+0 0  9992
2 41174  55.2143 136.1294 0001830 322.1315  37.8067  1.70474574 43146
GSAT0208 (GALILEO 11)   
1 41175U 15079B   22358.71951061  .00000038  00000+0  00000+0 0  9999
2 41175  55.2125 136.1701 0001153 331.8510  28.0900  1.70474428 43531
GPS BIIF-12             
1 41328U 16007A   22360.97397915  .00000051  00000+0  00000+0 0  9999
2 41328  54.9518 139.8334 0065564 230.3251 129.0630  2.00561528 50404
GSAT0211 (GALILEO 14)   
1 41549U 16030A   22359.42599412  .00000018  00000+0  00000+0 0  9997
2 41549  55.6494 256.6378 0004675 348.5882  11.4849  1.70472890 41027
GSAT0210 (GALILEO 13)   
1 41550U 16030B   22360.89122957  .00000007  00000+0  00000+0 0  9996
2 41550  55.6481 256.5987 0003126 328.3363  31.7240  1.70474374 41041
INSAT-3DR               
1 41752U 16054A   22361.50674856 -.00000075  00000+0  00000+0 0  9991
2 41752   0.1245  95.0661 0013748 175.3197  82.0014  1.00271019 23108
GSAT0207 (GALILEO 15)   
1 41859U 16069A   22361.14036854  .00000038  00000+0  00000+0 0  9993
2 41859  54.8760 136.2389 0001950 287.1454  72.7878  1.70474539 37781
GSAT0212 (GALILEO 16)   
1 41860U 16069B   22360.99414416  .00000038  00000+0  00000+0 0  9991
2 41860  54.8722 136.2400 0001089  10.6877 349.2685  1.70473219 38037
GSAT0213 (GALILEO 17)   
1 41861U 16069C   22360.77278738  .00000037  00000+0  00000+0 0  9992
2 41861  54.8758 136.2518 0002403 245.6267 114.3013  1.70473270 37897
GSAT0214 (GALILEO 18)   
1 41862U 16069D   22360.91996369  .00000038  00000+0  00000+0 0  9997
2 41862  54.8748 136.2421 0001481 237.3935 122.5459  1.70473343 38027
GOES 16                 
1 41866U 16071A   22361.52410404 -.00000246  00000+0  00000+0 0  9995
2 41866   0.0797 251.5856 0000573  59.4752 258.4070  1.00271490 22407
GSAT-17                 
1 42815U 17040B   22361.58627689 -.00000256  00000+0  00000+0 0  9999
2 42815   0.0578  99.7314 0006394 165.6977 135.1738  1.00269960 20078
GSAT0215 (GALILEO 19)   
1 43055U 17079A   22360.82353869  .00000007  00000+0  00000+0 0  9993
2 43055  55.6244 256.4288 0002615 320.5934  39.4671  1.70473748 31364
GSAT0216 (GALILEO 20)   
1 43056U 17079B   22359.35588895  .00000019  00000+0  00000+0 0  9992
2 43056  55.6255 256.4692 0003937 309.5947  50.4546  1.70473793 31358
GSAT0217 (GALILEO 21)   
1 43057U 17079C   22360.16276545  .00000013  00000+0  00000+0 0  9994
2 43057  55.6232 256.4463 0003972 324.8220  35.2339  1.70473731 31356
GSAT0218 (GALILEO 22)   
1 43058U 17079D   22358.62306054  .00000023  00000+0  00000+0 0  9993
2 43058  55.6248 256.4862 0003707 310.0499  50.0017  1.70473658 31354
GOES 17                 
1 43226U 18022A   22361.20301997  .00000101  00000+0  00000+0 0  9995
2 43226   0.0174 128.7284 0000184 163.9763  98.7035  1.00270845 17705
GSAT0221 (GALILEO 25)   
1 43564U 18060A   22359.10807916 -.00000069  00000+0  00000+0 0  9994
2 43564  57.2322  16.0301 0005527 274.6839  85.2999  1.70475731 27516
